{
  "norad_id": 60406,
  "name": "STARLINK-11150 [DTC]",
  "history": [
    {
      "epoch": "2026-03-28T20:59:54.104064Z",
      "apogee_km": 360.4415922865701,
      "perigee_km": 358.95374363519113,
      "latitude_deg": 3.375169278737665e-05,
      "longitude_deg": -149.39861646624337,
      "height_km": 360.7938251774771,
      "semi_major_axis_km": 6737.83466796088,
      "eccentricity": 0.00011041,
      "inclination_deg": 53.16,
      "raan_deg": 351.8659,
      "arg_perigee_deg": 104.1979,
      "mean_anomaly_deg": 255.9162,
      "mean_motion_rev_day": 15.69720163
    },
    {
      "epoch": "2026-03-29T00:03:18.358848Z",
      "apogee_km": 360.53395326577447,
      "perigee_km": 359.0475664019559,
      "latitude_deg": -2.0044979365802157e-05,
      "longitude_deg": 163.99814606291156,
      "height_km": 360.696039617382,
      "semi_major_axis_km": 6737.927759833865,
      "eccentricity": 0.0001103,
      "inclination_deg": 53.1602,
      "raan_deg": 351.2393,
      "arg_perigee_deg": 89.3531,
      "mean_anomaly_deg": 270.7613,
      "mean_motion_rev_day": 15.69687632
    },
    {
      "epoch": "2026-03-30T02:01:54.494400Z",
      "apogee_km": 360.072025268214,
      "perigee_km": 359.3774864784191,
      "latitude_deg": -1.367279569366921e-05,
      "longitude_deg": 127.94486127625864,
      "height_km": 360.4484923012099,
      "semi_major_axis_km": 6737.861755873316,
      "eccentricity": 5.154e-05,
      "inclination_deg": 53.1599,
      "raan_deg": 345.9034,
      "arg_perigee_deg": 56.6747,
      "mean_anomaly_deg": 303.432,
      "mean_motion_rev_day": 15.69710697
    },
    {
      "epoch": "2026-03-30T09:40:20.112384Z",
      "apogee_km": 360.1603913743793,
      "perigee_km": 359.3244900509644,
      "latitude_deg": -7.024639242631566e-05,
      "longitude_deg": 11.453295788338924,
      "height_km": 360.5179148296296,
      "semi_major_axis_km": 6737.879440712672,
      "eccentricity": 6.203e-05,
      "inclination_deg": 53.1595,
      "raan_deg": 344.3324,
      "arg_perigee_deg": 70.6018,
      "mean_anomaly_deg": 289.5066,
      "mean_motion_rev_day": 15.69704517
    },
    {
      "epoch": "2026-03-30T23:25:29.335872Z",
      "apogee_km": 360.27811966222816,
      "perigee_km": 359.271206143324,
      "latitude_deg": 3.592333874974482e-05,
      "longitude_deg": 161.77434669287203,
      "height_km": 360.4912966012716,
      "semi_major_axis_km": 6737.911662902776,
      "eccentricity": 7.472e-05,
      "inclination_deg": 53.1575,
      "raan_deg": 341.5066,
      "arg_perigee_deg": 66.9294,
      "mean_anomaly_deg": 293.1803,
      "mean_motion_rev_day": 15.69693257
    },
    {
      "epoch": "2026-03-31T10:07:16.316832Z",
      "apogee_km": 360.41029279358645,
      "perigee_km": 359.0629875804934,
      "latitude_deg": 6.996283893504748e-05,
      "longitude_deg": -1.3044661950893421,
      "height_km": 360.4148222495378,
      "semi_major_axis_km": 6737.873640187039,
      "eccentricity": 9.998e-05,
      "inclination_deg": 53.1594,
      "raan_deg": 339.3128,
      "arg_perigee_deg": 69.5269,
      "mean_anomaly_deg": 290.5857,
      "mean_motion_rev_day": 15.69706544
    },
    {
      "epoch": "2026-04-01T01:24:07.384320Z",
      "apogee_km": 360.5851557909373,
      "perigee_km": 358.9710208523802,
      "latitude_deg": -2.3467507751023183e-05,
      "longitude_deg": 125.71792158850656,
      "height_km": 360.42420841495715,
      "semi_major_axis_km": 6737.915088321659,
      "eccentricity": 0.00011978,
      "inclination_deg": 53.1601,
      "raan_deg": 336.1756,
      "arg_perigee_deg": 70.6426,
      "mean_anomaly_deg": 289.4721,
      "mean_motion_rev_day": 15.6969206
    }
  ]
}